{
  "type": "FeatureCollection",
  "features": [
    {
      "type": "Feature",
      "properties": {
        "norad_id": 43719,
        "name": "HYSIS",
        "group": "resource",
        "lat": -19.511769599686705,
        "lon": -131.65219394434698,
        "alt_km": 639.4971449745826,
        "timestamp": "2025-12-14T05:42:18.115244+00:00",
        "meta_object_name": "HYSIS",
        "meta_object_id": "2018-096A",
        "meta_epoch": "2025-12-13T15:48:45.228384",
        "meta_mean_motion": 14.78651372,
        "meta_eccentricity": 0.00013105,
        "meta_inclination": 98.0094,
        "meta_ra_of_asc_node": 50.6317,
        "meta_arg_of_pericenter": 56.0307,
        "meta_mean_anomaly": 304.1028,
        "meta_ephemeris_type": 0,
        "meta_classification_type": "U",
        "meta_norad_cat_id": 43719,
        "meta_element_set_no": 999,
        "meta_rev_at_epoch": 38000,
        "meta_bstar": 0.0003647415,
        "meta_mean_motion_dot": 2.621e-05,
        "meta_mean_motion_ddot": 0,
        "tle_line1": "1 43719U 18096A   25347.65885681  .00002621  00000+0  36474-3 0  9993",
        "tle_line2": "2 43719  98.0094  50.6317 0001310  56.0307 304.1028 14.78651372380007"
      },
      "geometry": {
        "type": "Point",
        "coordinates": [
          -131.65219394434698,
          -19.511769599686705
        ]
      }
    },
    {
      "type": "Feature",
      "properties": {
        "norad_id": 43783,
        "name": "KAZSTSAT",
        "group": "resource",
        "lat": -7.213947428119167,
        "lon": -157.59095889631251,
        "alt_km": 575.83437269969,
        "timestamp": "2025-12-14T05:42:18.115255+00:00",
        "meta_object_name": "KAZSTSAT",
        "meta_object_id": "2018-099AB",
        "meta_epoch": "2025-12-13T16:03:32.476032",
        "meta_mean_motion": 14.99356378,
        "meta_eccentricity": 0.00058971,
        "meta_inclination": 97.4559,
        "meta_ra_of_asc_node": 22.8146,
        "meta_arg_of_pericenter": 326.2955,
        "meta_mean_anomaly": 33.7893,
        "meta_ephemeris_type": 0,
        "meta_classification_type": "U",
        "meta_norad_cat_id": 43783,
        "meta_element_set_no": 999,
        "meta_rev_at_epoch": 38350,
        "meta_bstar": 0.00014501678,
        "meta_mean_motion_dot": 1.718e-05,
        "meta_mean_motion_ddot": 0,
        "tle_line1": "1 43783U 18099AB  25347.66912588  .00001718  00000+0  14502-3 0  9999",
        "tle_line2": "2 43783  97.4559  22.8146 0005897 326.2955  33.7893 14.99356378383507"
      },
      "geometry": {
        "type": "Point",
        "coordinates": [
          -157.59095889631251,
          -7.213947428119167
        ]
      }
    },
    {
      "type": "Feature",
      "properties": {
        "norad_id": 43831,
        "name": "SAUDISAT 5A",
        "group": "resource",
        "lat": 21.194877940578806,
        "lon": 45.53646556490786,
        "alt_km": 483.52894379445115,
        "timestamp": "2025-12-14T05:42:18.115265+00:00",
        "meta_object_name": "SAUDISAT 5A",
        "meta_object_id": "2018-102A",
        "meta_epoch": "2025-12-13T17:01:08.622912",
        "meta_mean_motion": 15.25674416,
        "meta_eccentricity": 0.00117261,
        "meta_inclination": 97.3356,
        "meta_ra_of_asc_node": 47.8814,
        "meta_arg_of_pericenter": 73.3474,
        "meta_mean_anomaly": 286.9051,
        "meta_ephemeris_type": 0,
        "meta_classification_type": "U",
        "meta_norad_cat_id": 43831,
        "meta_element_set_no": 999,
        "meta_rev_at_epoch": 38737,
        "meta_bstar": 0.00031566387,
        "meta_mean_motion_dot": 7.983e-05,
        "meta_mean_motion_ddot": 0,
        "tle_line1": "1 43831U 18102A   25347.70912758  .00007983  00000+0  31566-3 0  9991",
        "tle_line2": "2 43831  97.3356  47.8814 0011726  73.3474 286.9051 15.25674416387371"
      },
      "geometry": {
        "type": "Point",
        "coordinates": [
          45.53646556490786,
          21.194877940578806
        ]
      }
    },
    {
      "type": "Feature",
      "properties": {
        "norad_id": 43833,
        "name": "SAUDISAT 5B",
        "group": "resource",
        "lat": 73.96274654249815,
        "lon": 24.477711980585998,
        "alt_km": 472.0871286570591,
        "timestamp": "2025-12-14T05:42:18.115276+00:00",
        "meta_object_name": "SAUDISAT 5B",
        "meta_object_id": "2018-102C",
        "meta_epoch": "2025-12-13T15:12:41.899392",
        "meta_mean_motion": 15.26024581,
        "meta_eccentricity": 0.00124572,
        "meta_inclination": 97.345,
        "meta_ra_of_asc_node": 50.5476,
        "meta_arg_of_pericenter": 75.7757,
        "meta_mean_anomaly": 284.4865,
        "meta_ephemeris_type": 0,
        "meta_classification_type": "U",
        "meta_norad_cat_id": 43833,
        "meta_element_set_no": 999,
        "meta_rev_at_epoch": 38747,
        "meta_bstar": 0.00028443836,
        "meta_mean_motion_dot": 7.263e-05,
        "meta_mean_motion_ddot": 0,
        "tle_line1": "1 43833U 18102C   25347.63381828  .00007263  00000+0  28444-3 0  9995",
        "tle_line2": "2 43833  97.3450  50.5476 0012457  75.7757 284.4865 15.26024581387475"
      },
      "geometry": {
        "type": "Point",
        "coordinates": [
          24.477711980585998,
          73.96274654249815
        ]
      }
    },
    {
      "type": "Feature",
      "properties": {
        "norad_id": 44622,
        "name": "GAOFEN-10R",
        "group": "resource",
        "lat": 33.15287603755029,
        "lon": 121.039041931796,
        "alt_km": 620.2607694889148,
        "timestamp": "2025-12-14T05:42:18.115287+00:00",
        "meta_object_name": "GAOFEN-10R",
        "meta_object_id": "2019-066A",
        "meta_epoch": "2025-12-13T16:05:28.747104",
        "meta_mean_motion": 14.82797425,
        "meta_eccentricity": 0.00078201,
        "meta_inclination": 98.0276,
        "meta_ra_of_asc_node": 295.1803,
        "meta_arg_of_pericenter": 39.3026,
        "meta_mean_anomaly": 320.8753,
        "meta_ephemeris_type": 0,
        "meta_classification_type": "U",
        "meta_norad_cat_id": 44622,
        "meta_element_set_no": 999,
        "meta_rev_at_epoch": 33488,
        "meta_bstar": 0.00032230567,
        "meta_mean_motion_dot": 2.553e-05,
        "meta_mean_motion_ddot": 0,
        "tle_line1": "1 44622U 19066A   25347.67047161  .00002553  00000+0  32231-3 0  9991",
        "tle_line2": "2 44622  98.0276 295.1803 0007820  39.3026 320.8753 14.82797425334883"
      },
      "geometry": {
        "type": "Point",
        "coordinates": [
          121.039041931796,
          33.15287603755029
        ]
      }
    },
    {
      "type": "Feature",
      "properties": {
        "norad_id": 44804,
        "name": "CARTOSAT-3",
        "group": "resource",
        "lat": 33.99649361373685,
        "lon": -127.12897000166836,
        "alt_km": 502.4740507434926,
        "timestamp": "2025-12-14T05:42:18.115297+00:00",
        "meta_object_name": "CARTOSAT-3",
        "meta_object_id": "2019-081A",
        "meta_epoch": "2025-12-13T16:25:16.142304",
        "meta_mean_motion": 15.19166875,
        "meta_eccentricity": 0.00141837,
        "meta_inclination": 97.4586,
        "meta_ra_of_asc_node": 47.2556,
        "meta_arg_of_pericenter": 80.094,
        "meta_mean_anomaly": 280.1895,
        "meta_ephemeris_type": 0,
        "meta_classification_type": "U",
        "meta_norad_cat_id": 44804,
        "meta_element_set_no": 999,
        "meta_rev_at_epoch": 33530,
        "meta_bstar": 0.00036994412,
        "meta_mean_motion_dot": 7.732e-05,
        "meta_mean_motion_ddot": 0,
        "tle_line1": "1 44804U 19081A   25347.68421461  .00007732  00000+0  36994-3 0  9994",
        "tle_line2": "2 44804  97.4586  47.2556 0014183  80.0940 280.1895 15.19166875335304"
      },
      "geometry": {
        "type": "Point",
        "coordinates": [
          -127.12897000166836,
          33.99649361373685
        ]
      }
    },
    {
      "type": "Feature",
      "properties": {
        "norad_id": 44819,
        "name": "GAOFEN-12 01",
        "group": "resource",
        "lat": 41.225619445687634,
        "lon": -12.43022302855805,
        "alt_km": 624.9343255204103,
        "timestamp": "2025-12-14T05:42:18.115308+00:00",
        "meta_object_name": "GAOFEN-12 01",
        "meta_object_id": "2019-082A",
        "meta_epoch": "2025-12-13T16:32:31.808256",
        "meta_mean_motion": 14.80658742,
        "meta_eccentricity": 0.00013737,
        "meta_inclination": 97.8126,
        "meta_ra_of_asc_node": 353.9454,
        "meta_arg_of_pericenter": 227.6024,
        "meta_mean_anomaly": 132.5073,
        "meta_ephemeris_type": 0,
        "meta_classification_type": "U",
        "meta_norad_cat_id": 44819,
        "meta_element_set_no": 999,
        "meta_rev_at_epoch": 32664,
        "meta_bstar": 0.00010574739,
        "meta_mean_motion_dot": 7.62e-06,
        "meta_mean_motion_ddot": 0,
        "tle_line1": "1 44819U 19082A   25347.68925704  .00000762  00000+0  10575-3 0  9993",
        "tle_line2": "2 44819  97.8126 353.9454 0001373 227.6024 132.5073 14.80658742326648"
      },
      "geometry": {
        "type": "Point",
        "coordinates": [
          -12.43022302855805,
          41.225619445687634
        ]
      }
    }
  ]
}